{
    "links": {
        "self": "http://www.neowsapp.com/rest/v1/neo/3479015?api_key=iIulBulltgU6a56xZRHN4H3l9WmuAYTsLGpBGhQ2"
    },
    "id": "3479015",
    "neo_reference_id": "3479015",
    "name": "(2009 WN105)",
    "designation": "2009 WN105",
    "nasa_jpl_url": "http://ssd.jpl.nasa.gov/sbdb.cgi?sstr=3479015",
    "absolute_magnitude_h": 22.4,
    "estimated_diameter": {
        "kilometers": {
            "estimated_diameter_min": 0.0880146521,
            "estimated_diameter_max": 0.1968067451
        },
        "meters": {
            "estimated_diameter_min": 88.0146520901,
            "estimated_diameter_max": 196.8067450894
        },
        "miles": {
            "estimated_diameter_min": 0.0546897524,
            "estimated_diameter_max": 0.122290004
        },
        "feet": {
            "estimated_diameter_min": 288.7619911632,
            "estimated_diameter_max": 645.6914415591
        }
    },
    "is_potentially_hazardous_asteroid": false,
    "close_approach_data": [
        {
            "close_approach_date": "2009-12-28",
            "close_approach_date_full": "2009-Dec-28 00:39",
            "epoch_date_close_approach": 1261960740000,
            "relative_velocity": {
                "kilometers_per_second": "8.0537678472",
                "kilometers_per_hour": "28993.5642500997",
                "miles_per_hour": "18015.4732975134"
            },
            "miss_distance": {
                "astronomical": "0.2514033192",
                "lunar": "97.7958911688",
                "kilometers": "37609401.063250104",
                "miles": "23369398.1673112752"
            },
            "orbiting_body": "Earth"
        }
    ],
    "orbital_data": {
        "orbit_id": "11",
        "orbit_determination_date": "2017-04-06 08:58:53",
        "first_observation_date": "2009-11-24",
        "last_observation_date": "2009-12-26",
        "data_arc_in_days": 32,
        "observations_used": 26,
        "orbit_uncertainty": "7",
        "minimum_orbit_intersection": ".230588",
        "jupiter_tisserand_invariant": "3.139",
        "epoch_osculation": "2459000.5",
        "eccentricity": ".5488454179085173",
        "semi_major_axis": "2.618615785032053",
        "inclination": "13.81991853091871",
        "ascending_node_longitude": "75.88677074422755",
        "orbital_period": "1547.768839939079",
        "perihelion_distance": "1.181400510154296",
        "perihelion_argument": "35.14466380605624",
        "aphelion_distance": "4.05583105990981",
        "perihelion_time": "2458296.037015975177",
        "mean_anomaly": "163.8530688206118",
        "mean_motion": ".2325928722109239",
        "equinox": "J2000",
        "orbit_class": {
            "orbit_class_type": "AMO",
            "orbit_class_description": "Near-Earth asteroid orbits similar to that of 1221 Amor",
            "orbit_class_range": "1.017 AU < q (perihelion) < 1.3 AU"
        }
    },
    "is_sentry_object": false
}